[{"OBJECT_NAME":"NAVSTAR 58 (USA 190)","OBJECT_ID":"2006-042A","EPOCH":"2023-01-02T13:26:49.661664","MEAN_MOTION":2.00567653,"ECCENTRICITY":0.0106765,"INCLINATION":54.6975,"RA_OF_ASC_NODE":201.3631,"ARG_OF_PERICENTER":26.8629,"MEAN_ANOMALY":330.1805,"EPHEMERIS_TYPE":0,"CLASSIFICATION_TYPE":"U","NORAD_CAT_ID":29486,"ELEMENT_SET_NO":999,"REV_AT_EPOCH":11908,"BSTAR":0,"MEAN_MOTION_DOT":1.05e-6,"MEAN_MOTION_DDOT":0},{"OBJECT_NAME":"DIRECTV 9S","OBJECT_ID":"2006-043A","EPOCH":"2023-01-02T20:31:59.855232","MEAN_MOTION":1.00271434,"ECCENTRICITY":0.0003216,"INCLINATION":0.0201,"RA_OF_ASC_NODE":84.5691,"ARG_OF_PERICENTER":198.2967,"MEAN_ANOMALY":26.142,"EPHEMERIS_TYPE":0,"CLASSIFICATION_TYPE":"U","NORAD_CAT_ID":29494,"ELEMENT_SET_NO":999,"REV_AT_EPOCH":3873,"BSTAR":0,"MEAN_MOTION_DOT":-1.01e-6,"MEAN_MOTION_DDOT":0},{"OBJECT_NAME":"OPTUS D1","OBJECT_ID":"2006-043B","EPOCH":"2023-01-02T20:03:45.367200","MEAN_MOTION":1.00271985,"ECCENTRICITY":0.0003564,"INCLINATION":0.0168,"RA_OF_ASC_NODE":56.3507,"ARG_OF_PERICENTER":223.6992,"MEAN_ANOMALY":283.0807,"EPHEMERIS_TYPE":0,"CLASSIFICATION_TYPE":"U","NORAD_CAT_ID":29495,"ELEMENT_SET_NO":999,"REV_AT_EPOCH":5947,"BSTAR":0,"MEAN_MOTION_DOT":-9.9e-7,"MEAN_MOTION_DDOT":0},{"OBJECT_NAME":"SHIJIAN-6 02A (SJ-6 02A)","OBJECT_ID":"2006-046A","EPOCH":"2023-01-02T21:07:14.477952","MEAN_MOTION":14.97043532,"ECCENTRICITY":0.0005,"INCLINATION":97.7646,"RA_OF_ASC_NODE":27.5786,"ARG_OF_PERICENTER":156.6682,"MEAN_ANOMALY":203.4797,"EPHEMERIS_TYPE":0,"CLASSIFICATION_TYPE":"U","NORAD_CAT_ID":29505,"ELEMENT_SET_NO":999,"REV_AT_EPOCH":88252,"BSTAR":0.00031777,"MEAN_MOTION_DOT":3.603e-5,"MEAN_MOTION_DDOT":0},{"OBJECT_NAME":"SHIJIAN-6 02B (SJ-6 02B)","OBJECT_ID":"2006-046B","EPOCH":"2023-01-02T18:30:04.618656","MEAN_MOTION":14.94407321,"ECCENTRICITY":5.5e-5,"INCLINATION":97.7854,"RA_OF_ASC_NODE":27.4112,"ARG_OF_PERICENTER":301.7559,"MEAN_ANOMALY":58.3563,"EPHEMERIS_TYPE":0,"CLASSIFICATION_TYPE":"U","NORAD_CAT_ID":29506,"ELEMENT_SET_NO":999,"REV_AT_EPOCH":88190,"BSTAR":0.00011654,"MEAN_MOTION_DOT":1.198e-5,"MEAN_MOTION_DDOT":0},{"OBJECT_NAME":"XM-4 (BLUES)","OBJECT_ID":"2006-049A","EPOCH":"2023-01-02T20:36:38.503872","MEAN_MOTION":1.00268983,"ECCENTRICITY":0.0002004,"INCLINATION":0.0459,"RA_OF_ASC_NODE":271.3464,"ARG_OF_PERICENTER":56.2354,"MEAN_ANOMALY":358.6982,"EPHEMERIS_TYPE":0,"CLASSIFICATION_TYPE":"U","NORAD_CAT_ID":29520,"ELEMENT_SET_NO":999,"REV_AT_EPOCH":3882,"BSTAR":0,"MEAN_MOTION_DOT":-1.93e-6,"MEAN_MOTION_DDOT":0},{"OBJECT_NAME":"DMSP 5D-3 F17 (USA 191)","OBJECT_ID":"2006-050A","EPOCH":"2023-01-02T19:38:41.848224","MEAN_MOTION":14.14155241,"ECCENTRICITY":0.001064,"INCLINATION":98.7604,"RA_OF_ASC_NODE":19.0759,"ARG_OF_PERICENTER":57.2663,"MEAN_ANOMALY":302.9534,"EPHEMERIS_TYPE":0,"CLASSIFICATION_TYPE":"U","NORAD_CAT_ID":29522,"ELEMENT_SET_NO":999,"REV_AT_EPOCH":83408,"BSTAR":0.0001072,"MEAN_MOTION_DOT":1.61e-6,"MEAN_MOTION_DDOT":0},{"OBJECT_NAME":"BADR-4","OBJECT_ID":"2006-051A","EPOCH":"2023-01-02T21:45:42.786144","MEAN_MOTION":1.00274042,"ECCENTRICITY":0.0008016,"INCLINATION":0.0326,"RA_OF_ASC_NODE":2.4777,"ARG_OF_PERICENTER":294.8932,"MEAN_ANOMALY":157.3084,"EPHEMERIS_TYPE":0,"CLASSIFICATION_TYPE":"U","NORAD_CAT_ID":29526,"ELEMENT_SET_NO":999,"REV_AT_EPOCH":3862,"BSTAR":0,"MEAN_MOTION_DOT":1.56e-6,"MEAN_MOTION_DDOT":0},{"OBJECT_NAME":"NAVSTAR 59 (USA 192)","OBJECT_ID":"2006-052A","EPOCH":"2023-01-02T00:24:03.799296","MEAN_MOTION":2.00562134,"ECCENTRICITY":0.0085748,"INCLINATION":55.3966,"RA_OF_ASC_NODE":264.1186,"ARG_OF_PERICENTER":75.4672,"MEAN_ANOMALY":285.5377,"EPHEMERIS_TYPE":0,"CLASSIFICATION_TYPE":"U","NORAD_CAT_ID":29601,"ELEMENT_SET_NO":999,"REV_AT_EPOCH":11809,"BSTAR":0,"MEAN_MOTION_DOT":-1.6e-7,"MEAN_MOTION_DDOT":0},{"OBJECT_NAME":"WILDBLUE-1","OBJECT_ID":"2006-054A","EPOCH":"2023-01-02T17:02:36.138336","MEAN_MOTION":1.00272441,"ECCENTRICITY":0.0001948,"INCLINATION":0.0162,"RA_OF_ASC_NODE":51.2342,"ARG_OF_PERICENTER":229.4465,"MEAN_ANOMALY":325.8621,"EPHEMERIS_TYPE":0,"CLASSIFICATION_TYPE":"U","NORAD_CAT_ID":29643,"ELEMENT_SET_NO":999,"REV_AT_EPOCH":4114,"BSTAR":0,"MEAN_MOTION_DOT":-3.7e-7,"MEAN_MOTION_DDOT":0},{"OBJECT_NAME":"AMC-18","OBJECT_ID":"2006-054B","EPOCH":"2023-01-02T12:49:42.780288","MEAN_MOTION":1.0027197,"ECCENTRICITY":0.0002814,"INCLINATION":0.0264,"RA_OF_ASC_NODE":60.7838,"ARG_OF_PERICENTER":222.6714,"MEAN_ANOMALY":287.8646,"EPHEMERIS_TYPE":0,"CLASSIFICATION_TYPE":"U","NORAD_CAT_ID":29644,"ELEMENT_SET_NO":999,"REV_AT_EPOCH":5888,"BSTAR":0,"MEAN_MOTION_DOT":-2.04e-6,"MEAN_MOTION_DDOT":0},{"OBJECT_NAME":"LAPAN-TUBSAT","OBJECT_ID":"2007-001A","EPOCH":"2023-01-02T20:33:19.465056","MEAN_MOTION":14.82705828,"ECCENTRICITY":0.0012154,"INCLINATION":97.9952,"RA_OF_ASC_NODE":330.0904,"ARG_OF_PERICENTER":334.0293,"MEAN_ANOMALY":26.0326,"EPHEMERIS_TYPE":0,"CLASSIFICATION_TYPE":"U","NORAD_CAT_ID":29709,"ELEMENT_SET_NO":999,"REV_AT_EPOCH":86405,"BSTAR":9.5085e-5,"MEAN_MOTION_DOT":7.13e-6,"MEAN_MOTION_DDOT":0},{"OBJECT_NAME":"CARTOSAT-2 (IRS-P7)","OBJECT_ID":"2007-001B","EPOCH":"2023-01-02T14:42:28.287360","MEAN_MOTION":15.37466668,"ECCENTRICITY":0.0130577,"INCLINATION":97.8763,"RA_OF_ASC_NODE":125.8059,"ARG_OF_PERICENTER":75.5922,"MEAN_ANOMALY":285.9772,"EPHEMERIS_TYPE":0,"CLASSIFICATION_TYPE":"U","NORAD_CAT_ID":29710,"ELEMENT_SET_NO":999,"REV_AT_EPOCH":86674,"BSTAR":0.00049578,"MEAN_MOTION_DOT":0.00024344,"MEAN_MOTION_DDOT":0},{"OBJECT_NAME":"THEMIS A","OBJECT_ID":"2007-004A","EPOCH":"2023-01-01T18:54:06.539616","MEAN_MOTION":0.87832993,"ECCENTRICITY":0.8355494,"INCLINATION":12.4683,"RA_OF_ASC_NODE":323.808,"ARG_OF_PERICENTER":207.3173,"MEAN_ANOMALY":59.5998,"EPHEMERIS_TYPE":0,"CLASSIFICATION_TYPE":"U","NORAD_CAT_ID":30580,"ELEMENT_SET_NO":999,"REV_AT_EPOCH":5487,"BSTAR":0.037509,"MEAN_MOTION_DOT":-7.2e-7,"MEAN_MOTION_DDOT":0},{"OBJECT_NAME":"OE (NEXTSAT)","OBJECT_ID":"2007-006C","EPOCH":"2023-01-02T14:47:30.870528","MEAN_MOTION":15.67775163,"ECCENTRICITY":0.0006447,"INCLINATION":45.9939,"RA_OF_ASC_NODE":327.6555,"ARG_OF_PERICENTER":107.4669,"MEAN_ANOMALY":252.695,"EPHEMERIS_TYPE":0,"CLASSIFICATION_TYPE":"U","NORAD_CAT_ID":30774,"ELEMENT_SET_NO":999,"REV_AT_EPOCH":88495,"BSTAR":0.00047644,"MEAN_MOTION_DOT":0.00053576,"MEAN_MOTION_DDOT":0},{"OBJECT_NAME":"FALCONSAT-3","OBJECT_ID":"2007-006E","EPOCH":"2023-01-02T17:12:25.345728","MEAN_MOTION":15.90299178,"ECCENTRICITY":0.0008579,"INCLINATION":35.4243,"RA_OF_ASC_NODE":12.6548,"ARG_OF_PERICENTER":185.5807,"MEAN_ANOMALY":174.4841,"EPHEMERIS_TYPE":0,"CLASSIFICATION_TYPE":"U","NORAD_CAT_ID":30776,"ELEMENT_SET_NO":999,"REV_AT_EPOCH":88081,"BSTAR":0.001042,"MEAN_MOTION_DOT":0.00331978,"MEAN_MOTION_DDOT":4.1379e-5},{"OBJECT_NAME":"SKYNET 5A","OBJECT_ID":"2007-007B","EPOCH":"2023-01-02T19:45:03.239424","MEAN_MOTION":1.00270976,"ECCENTRICITY":0.0003472,"INCLINATION":2.0709,"RA_OF_ASC_NODE":88.3804,"ARG_OF_PERICENTER":196.4517,"MEAN_ANOMALY":208.803,"EPHEMERIS_TYPE":0,"CLASSIFICATION_TYPE":"U","NORAD_CAT_ID":30794,"ELEMENT_SET_NO":999,"REV_AT_EPOCH":5805,"BSTAR":0,"MEAN_MOTION_DOT":-2.62e-6,"MEAN_MOTION_DDOT":0}]
