NAVSTAR 58 (USA 190)    
1 29486U 06042A   23002.56029701  .00000105  00000+0  00000+0 0  9992
2 29486  54.6975 201.3631 0106765  26.8629 330.1805  2.00567653119084
DIRECTV 9S              
1 29494U 06043A   23002.85555388 -.00000101  00000+0  00000+0 0  9996
2 29494   0.0201  84.5691 0003216 198.2967  26.1420  1.00271434 38738
OPTUS D1                
1 29495U 06043B   23002.83594175 -.00000099  00000+0  00000+0 0  9998
2 29495   0.0168  56.3507 0003564 223.6992 283.0807  1.00271985 59479
SHIJIAN-6 02A (SJ-6 02A)
1 29505U 06046A   23002.88002868  .00003603  00000+0  31777-3 0  9993
2 29505  97.7646  27.5786 0005000 156.6682 203.4797 14.97043532882521
SHIJIAN-6 02B (SJ-6 02B)
1 29506U 06046B   23002.77088679  .00001198  00000+0  11654-3 0  9995
2 29506  97.7854  27.4112 0000550 301.7559  58.3563 14.94407321881902
XM-4 (BLUES)            
1 29520U 06049A   23002.85877898 -.00000193  00000+0  00000+0 0  9996
2 29520   0.0459 271.3464 0002004  56.2354 358.6982  1.00268983 38825
DMSP 5D-3 F17 (USA 191) 
1 29522U 06050A   23002.81853991  .00000161  00000+0  10720-3 0  9992
2 29522  98.7604  19.0759 0010640  57.2663 302.9534 14.14155241834084
BADR-4                  
1 29526U 06051A   23002.90674521  .00000156  00000+0  00000+0 0  9997
2 29526   0.0326   2.4777 0008016 294.8932 157.3084  1.00274042 38623
NAVSTAR 59 (USA 192)    
1 29601U 06052A   23002.01671064 -.00000016  00000+0  00000+0 0  9999
2 29601  55.3966 264.1186 0085748  75.4672 285.5377  2.00562134118094
WILDBLUE-1              
1 29643U 06054A   23002.71014049 -.00000037  00000+0  00000+0 0  9991
2 29643   0.0162  51.2342 0001948 229.4465 325.8621  1.00272441 41144
AMC-18                  
1 29644U 06054B   23002.53452292 -.00000204  00000+0  00000+0 0  9994
2 29644   0.0264  60.7838 0002814 222.6714 287.8646  1.00271970 58887
LAPAN-TUBSAT            
1 29709U 07001A   23002.85647529  .00000713  00000+0  95085-4 0  9999
2 29709  97.9952 330.0904 0012154 334.0293  26.0326 14.82705828864053
CARTOSAT-2 (IRS-P7)     
1 29710U 07001B   23002.61282740  .00024344  00000+0  49578-3 0  9996
2 29710  97.8763 125.8059 0130577  75.5922 285.9772 15.37466668866747
THEMIS A                
1 30580U 07004A   23001.78757569 -.00000072  00000+0  37509-1 0  9991
2 30580  12.4683 323.8080 8355494 207.3173  59.5998  0.87832993 54875
OE (NEXTSAT)            
1 30774U 07006C   23002.61632952  .00053576  00000+0  47644-3 0  9998
2 30774  45.9939 327.6555 0006447 107.4669 252.6950 15.67775163884950
FALCONSAT-3             
1 30776U 07006E   23002.71696002  .00331978  41379-4  10420-2 0  9992
2 30776  35.4243  12.6548 0008579 185.5807 174.4841 15.90299178880810
SKYNET 5A               
1 30794U 07007B   23002.82295416 -.00000262  00000+0  00000+0 0  9990
2 30794   2.0709  88.3804 0003472 196.4517 208.8030  1.00270976 58054
